HIMAWARI-8              
1 40267U 14060A   24029.44077156 -.00000266  00000+0  00000+0 0  9994
2 40267   0.0474 227.8748 0000875  62.8281 136.8034  1.00273284 34145
